NORAD_CAT_ID,OBJECT_NAME,OBJECT_TYPE,EPOCH,MEAN_MOTION,ECCENTRICITY,INCLINATION,RA_OF_ASC_NODE,ARG_OF_PERICENTER,MEAN_ANOMALY,BSTAR,MEAN_MOTION_DOT,MEAN_MOTION_DDOT,TLE_LINE0,TLE_LINE1,TLE_LINE2,SEMIMAJOR_AXIS,PERIOD,APOGEE,PERIGEE,DECAYED
51117.0,STARLINK-3391,PAYLOAD,2024-07-24 22:31:45,15.08841332,0.0001058,53.2177,69.9649,69.7868,290.3238,6.0955e-05,6.82e-06,0.0,0 STARLINK-3391,1 51117U 22005P   24206.93872236  .00000682  00000-0  60955-4 0  9993,2 51117  53.2177  69.9649 0001058  69.7868 290.3238 15.08841332139390,6917.876,95.437,540.473,539.009,0.0
51117.0,STARLINK-3391,PAYLOAD,2024-07-25 22:22:32,15.08837432,0.0001169,53.2177,65.5017,87.3083,272.8043,2.3768e-05,9e-07,0.0,0 STARLINK-3391,1 51117U 22005P   24207.93232168  .00000090  00000-0  23768-4 0  9992,2 51117  53.2177  65.5017 0001169  87.3083 272.8043 15.08837432139541,6917.888,95.438,540.562,538.945,0.0
51117.0,STARLINK-3391,PAYLOAD,2024-07-25 23:57:55,15.08850087,0.0001145,53.2187,65.2046,85.6815,274.4308,-0.00013581,-2.449e-05,0.0,0 STARLINK-3391,1 51117U 22005P   24207.99855861 -.00002449  00000-0 -13581-3 0  9992,2 51117  53.2187  65.2046 0001145  85.6815 274.4308 15.08850087140667,6917.85,95.437,540.507,538.922,0.0
51117.0,STARLINK-3391,PAYLOAD,2024-07-26 20:37:54,15.08856931,0.0001371,53.2165,61.345,77.5016,282.613,0.00012646,1.726e-05,0.0,0 STARLINK-3391,1 51117U 22005P   24208.85966172  .00001726  00000-0  12646-3 0  9992,2 51117  53.2165  61.3450 0001371  77.5016 282.6130 15.08856931140795,6917.829,95.436,540.642,538.745,0.0
51117.0,STARLINK-3391,PAYLOAD,2024-07-26 22:13:17,15.08860446,0.0001421,53.2159,61.0481,73.61,286.5048,9.7493e-05,1.265e-05,0.0,0 STARLINK-3391,1 51117U 22005P   24208.92590053  .00001265  00000-0  97493-4 0  9993,2 51117  53.2159  61.0481 0001421  73.6100 286.5048 15.08860446139690,6917.818,95.436,540.666,538.7,0.0
51117.0,STARLINK-3391,PAYLOAD,2024-07-27 20:28:43,15.08835038,0.0001578,53.2187,56.8835,72.6355,287.481,-9.1969e-05,-1.751e-05,0.0,0 STARLINK-3391,1 51117U 22005P   24209.85328379 -.00001751  00000-0 -91969-4 0  9990,2 51117  53.2187  56.8835 0001578  72.6355 287.4810 15.08835038139832,6917.896,95.438,540.852,538.669,0.0
51117.0,STARLINK-3391,PAYLOAD,2024-07-27 22:04:06,15.08836822,0.0001363,53.2177,56.5873,75.0741,285.0402,-7.5746e-05,-1.493e-05,0.0,0 STARLINK-3391,1 51117U 22005P   24209.91952160 -.00001493  00000-0 -75746-4 0  9996,2 51117  53.2177  56.5873 0001363  75.0741 285.0402 15.08836822140956,6917.89,95.438,540.698,538.812,0.0
51117.0,STARLINK-3391,PAYLOAD,2024-07-28 20:19:29,15.08848702,0.0001434,53.2176,52.4234,91.3145,268.8011,-7.2091e-05,-1.435e-05,0.0,0 STARLINK-3391,1 51117U 22005P   24210.84687478 -.00001435  00000-0 -72091-4 0  9993,2 51117  53.2176  52.4234 0001434  91.3145 268.8011 15.08848702141090,6917.854,95.437,540.711,538.727,0.0
51117.0,STARLINK-3391,PAYLOAD,2024-07-28 23:30:16,15.08842611,0.0001631,53.218,51.8286,90.7878,269.3301,8.636e-05,1.087e-05,0.0,0 STARLINK-3391,1 51117U 22005P   24210.97935327  .00001087  00000-0  86360-4 0  9991,2 51117  53.2180  51.8286 0001631  90.7878 269.3301 15.08842611140001,6917.872,95.437,540.866,538.609,0.0
51117.0,STARLINK-3391,PAYLOAD,2024-07-29 20:10:17,15.08838433,0.0001449,53.2181,47.9647,94.6615,265.4543,0.00015837,2.233e-05,0.0,0 STARLINK-3391,1 51117U 22005P   24211.84047534  .00002233  00000-0  15837-3 0  9996,2 51117  53.2181  47.9647 0001449  94.6615 265.4543 15.08838433141247,6917.885,95.438,540.753,538.748,0.0
51117.0,STARLINK-3391,PAYLOAD,2024-07-30 12:04:08,15.0885379,0.00015,53.2184,44.9933,100.5763,259.5398,-0.00010196,-1.911e-05,0.0,0 STARLINK-3391,1 51117U 22005P   24212.50287659 -.00001911  00000-0 -10196-3 0  9991,2 51117  53.2184  44.9933 0001500 100.5763 259.5398 15.08853790140237,6917.838,95.437,540.741,538.666,0.0
51117.0,STARLINK-3391,PAYLOAD,2024-07-30 20:01:04,15.08835961,0.0001435,53.218,43.5047,97.0434,263.0722,7.8713e-05,9.65e-06,0.0,0 STARLINK-3391,1 51117U 22005P   24212.83408114  .00000965  00000-0  78713-4 0  9994,2 51117  53.2180  43.5047 0001435  97.0434 263.0722 15.08835961141395,6917.893,95.438,540.75,538.765,0.0
51117.0,STARLINK-3391,PAYLOAD,2024-07-31 05:33:23,15.08837909,0.0001374,53.2176,41.7208,101.5119,258.6027,-2.5911e-05,-7e-06,0.0,0 STARLINK-3391,1 51117U 22005P   24213.23152310 -.00000700  00000-0 -25911-4 0  9994,2 51117  53.2176  41.7208 0001374 101.5119 258.6027 15.08837909140348,6917.887,95.438,540.702,538.801,0.0
51117.0,STARLINK-3391,PAYLOAD,2024-07-31 21:27:14,15.08844638,0.0001412,53.2178,38.7439,81.9027,278.2126,-5.8095e-05,-1.213e-05,0.0,0 STARLINK-3391,1 51117U 22005P   24213.89392248 -.00001213  00000-0 -58095-4 0  9991,2 51117  53.2178  38.7439 0001412  81.9027 278.2126 15.08844638140440,6917.866,95.437,540.708,538.754,0.0
51117.0,STARLINK-3391,PAYLOAD,2024-08-01 05:24:10,15.08848388,0.0001561,53.2189,37.2577,83.0395,277.0774,-6.3801e-05,-1.304e-05,0.0,0 STARLINK-3391,1 51117U 22005P   24214.22511947 -.00001304  00000-0 -63801-4 0  9990,2 51117  53.2189  37.2577 0001561  83.0395 277.0774 15.08848388140492,6917.855,95.437,540.8,538.64,0.0
51117.0,STARLINK-3391,PAYLOAD,2024-08-01 19:42:37,15.08849445,0.0001301,53.217,34.5841,93.6258,266.4883,0.00018356,2.635e-05,0.0,0 STARLINK-3391,1 51117U 22005P   24214.82127235  .00002635  00000-0  18356-3 0  9999,2 51117  53.2170  34.5841 0001301  93.6258 266.4883 15.08849445141694,6917.852,95.437,540.617,538.817,0.0
51117.0,STARLINK-3391,PAYLOAD,2024-08-02 05:14:57,15.08837344,0.0001482,53.2191,32.7979,83.6886,276.4275,0.00010936,1.453e-05,0.0,0 STARLINK-3391,1 51117U 22005P   24215.21872357  .00001453  00000-0  10936-3 0  9998,2 51117  53.2191  32.7979 0001482  83.6886 276.4275 15.08837344141753,6917.889,95.438,540.779,538.728,0.0
51117.0,STARLINK-3391,PAYLOAD,2024-08-02 11:36:30,15.08832791,0.0001242,53.2164,31.6112,89.0623,271.0512,8.7116e-05,1.099e-05,0.0,0 STARLINK-3391,1 51117U 22005P   24215.48368713  .00001099  00000-0  87116-4 0  9994,2 51117  53.2164  31.6112 0001242  89.0623 271.0512 15.08832791140680,6917.902,95.438,540.627,538.908,0.0
51117.0,STARLINK-3391,PAYLOAD,2024-08-02 17:58:03,15.08832287,0.0001429,53.2177,30.4201,90.4756,269.64,6.0124e-05,6.69e-06,0.0,0 STARLINK-3391,1 51117U 22005P   24215.74865057  .00000669  00000-0  60124-4 0  9998,2 51117  53.2177  30.4201 0001429  90.4756 269.6400 15.08832287141837,6917.904,95.438,540.758,538.78,0.0
51117.0,STARLINK-3391,PAYLOAD,2024-08-03 05:05:44,15.08841249,0.0001397,53.2175,28.3381,86.6871,273.4281,4.1296e-05,3.69e-06,0.0,0 STARLINK-3391,1 51117U 22005P   24216.21232568  .00000369  00000-0  41296-4 0  9992,2 51117  53.2175  28.3381 0001397  86.6871 273.4281 15.08841249141905,6917.877,95.437,540.708,538.775,0.0
51117.0,STARLINK-3391,PAYLOAD,2024-08-03 11:27:17,15.08839108,0.0001424,53.2178,27.1484,88.8006,271.3149,3.2898e-05,2.36e-06,0.0,0 STARLINK-3391,1 51117U 22005P   24216.47728754  .00000236  00000-0  32898-4 0  9998,2 51117  53.2178  27.1484 0001424  88.8006 271.3149 15.08839108140836,6917.883,95.438,540.733,538.763,0.0
51117.0,STARLINK-3391,PAYLOAD,2024-08-03 17:48:49,15.08846413,0.0001598,53.2179,25.9584,91.5121,268.6054,8.3875e-05,1.047e-05,0.0,0 STARLINK-3391,1 51117U 22005P   24216.74224226  .00001047  00000-0  83875-4 0  9995,2 51117  53.2179  25.9584 0001598  91.5121 268.6054 15.08846413140870,6917.861,95.437,540.831,538.62,0.0
51117.0,STARLINK-3391,PAYLOAD,2024-08-04 11:18:04,15.0882969,0.0001524,53.2174,22.6878,97.8746,262.2419,0.00025064,3.702e-05,0.0,0 STARLINK-3391,1 51117U 22005P   24217.47088624  .00003702  00000-0  25064-3 0  9991,2 51117  53.2174  22.6878 0001524  97.8746 262.2419 15.08829690142095,6917.912,95.438,540.831,538.723,0.0
51117.0,STARLINK-3391,PAYLOAD,2024-08-04 14:28:50,15.08843482,0.0001605,53.2163,22.0937,92.9178,267.1998,0.00013386,1.843e-05,0.0,0 STARLINK-3391,1 51117U 22005P   24217.60336116  .00001843  00000-0  13386-3 0  9996,2 51117  53.2163  22.0937 0001605  92.9178 267.1998 15.08843482141009,6917.87,95.437,540.845,538.624,0.0
51117.0,STARLINK-3391,PAYLOAD,2024-08-04 17:39:36,15.08844103,0.0001429,53.2183,21.4986,103.7806,256.3345,0.00019929,2.886e-05,0.0,0 STARLINK-3391,1 51117U 22005P   24217.73583851  .00002886  00000-0  19929-3 0  9997,2 51117  53.2183  21.4986 0001429 103.7806 256.3345 15.08844103142133,6917.868,95.437,540.721,538.744,0.0
51117.0,STARLINK-3391,PAYLOAD,2024-08-05 17:30:23,15.08849021,0.0001189,53.2177,17.0411,90.86,269.2529,0.00011468,1.538e-05,0.0,0 STARLINK-3391,1 51117U 22005P   24218.72943385  .00001538  00000-0  11468-3 0  9992,2 51117  53.2177  17.0411 0001189  90.8600 269.2529 15.08849021141175,6917.853,95.437,540.54,538.895,0.0
51117.0,STARLINK-3391,PAYLOAD,2024-08-06 03:02:42,15.08836637,0.0001139,53.2167,15.2543,80.8473,279.2648,-5.8454e-05,-1.218e-05,0.0,0 STARLINK-3391,1 51117U 22005P   24219.12688609 -.00001218  00000-0 -58454-4 0  9996,2 51117  53.2167  15.2543 0001139  80.8473 279.2648 15.08836637142344,6917.891,95.438,540.544,538.968,0.0
51117.0,STARLINK-3391,PAYLOAD,2024-08-06 10:59:40,15.08816677,0.00014,53.2185,13.7675,107.6424,252.4721,-0.00020816,-3.597e-05,0.0,0 STARLINK-3391,1 51117U 22005P   24219.45810540 -.00003597  00000-0 -20816-3 0  9995,2 51117  53.2185  13.7675 0001400 107.6424 252.4721 15.08816677142390,6917.952,95.439,540.785,538.848,0.0
51117.0,STARLINK-3391,PAYLOAD,2024-08-06 14:10:26,15.08818028,0.0001488,53.2196,13.1752,108.4844,251.6309,-8.2987e-05,-1.608e-05,0.0,0 STARLINK-3391,1 51117U 22005P   24219.59058201 -.00001608  00000-0 -82987-4 0  9997,2 51117  53.2196  13.1752 0001488 108.4844 251.6309 15.08818028141308,6917.948,95.439,540.842,538.783,0.0
51117.0,STARLINK-3391,PAYLOAD,2024-08-06 17:21:12,15.08818632,0.0001332,53.2196,12.5832,102.4283,257.6858,-4.3962e-05,-9.87e-06,0.0,0 STARLINK-3391,1 51117U 22005P   24219.72306233 -.00000987  00000-0 -43962-4 0  9992,2 51117  53.2196  12.5832 0001332 102.4283 257.6858 15.08818632142430,6917.946,95.439,540.732,538.889,0.0
